[{"OBJECT_NAME":"ONEWEB-0658","OBJECT_ID":"2023-029Z","EPOCH":"2026-02-02T06:23:00.725568","MEAN_MOTION":13.19726988,"ECCENTRICITY":0.00014127,"INCLINATION":87.9254,"RA_OF_ASC_NODE":331.7968,"ARG_OF_PERICENTER":89.7697,"MEAN_ANOMALY":270.3598,"EPHEMERIS_TYPE":0,"CLASSIFICATION_TYPE":"U","NORAD_CAT_ID":55819,"ELEMENT_SET_NO":999,"REV_AT_EPOCH":14112,"BSTAR":0.00018671718,"MEAN_MOTION_DOT":8.8e-7,"MEAN_MOTION_DDOT":0},{"OBJECT_NAME":"ONEWEB-0660","OBJECT_ID":"2023-029AA","EPOCH":"2026-02-02T05:54:09.111456","MEAN_MOTION":13.14504625,"ECCENTRICITY":0.00014654,"INCLINATION":87.9036,"RA_OF_ASC_NODE":316.5953,"ARG_OF_PERICENTER":70.8764,"MEAN_ANOMALY":289.2525,"EPHEMERIS_TYPE":0,"CLASSIFICATION_TYPE":"U","NORAD_CAT_ID":55820,"ELEMENT_SET_NO":999,"REV_AT_EPOCH":14167,"BSTAR":0.00047291554,"MEAN_MOTION_DOT":1.88e-6,"MEAN_MOTION_DDOT":0},{"OBJECT_NAME":"ONEWEB-0661","OBJECT_ID":"2023-029AB","EPOCH":"2026-02-02T06:44:23.696448","MEAN_MOTION":13.14504468,"ECCENTRICITY":0.00015948,"INCLINATION":87.9021,"RA_OF_ASC_NODE":316.6487,"ARG_OF_PERICENTER":67.7161,"MEAN_ANOMALY":292.4137,"EPHEMERIS_TYPE":0,"CLASSIFICATION_TYPE":"U","NORAD_CAT_ID":55821,"ELEMENT_SET_NO":999,"REV_AT_EPOCH":14166,"BSTAR":-0.00024117834,"MEAN_MOTION_DOT":-7.7e-7,"MEAN_MOTION_DDOT":0},{"OBJECT_NAME":"ONEWEB-0662","OBJECT_ID":"2023-029AC","EPOCH":"2026-02-02T05:45:00.753120","MEAN_MOTION":13.14501935,"ECCENTRICITY":0.00014596,"INCLINATION":87.9023,"RA_OF_ASC_NODE":316.6641,"ARG_OF_PERICENTER":71.4057,"MEAN_ANOMALY":288.7231,"EPHEMERIS_TYPE":0,"CLASSIFICATION_TYPE":"U","NORAD_CAT_ID":55822,"ELEMENT_SET_NO":999,"REV_AT_EPOCH":14170,"BSTAR":0.00049010876,"MEAN_MOTION_DOT":1.94e-6,"MEAN_MOTION_DDOT":0},{"OBJECT_NAME":"ONEWEB-0663","OBJECT_ID":"2023-029AD","EPOCH":"2026-02-02T05:58:32.706624","MEAN_MOTION":13.20858818,"ECCENTRICITY":0.00012359,"INCLINATION":87.9237,"RA_OF_ASC_NODE":301.4271,"ARG_OF_PERICENTER":75.8515,"MEAN_ANOMALY":284.2756,"EPHEMERIS_TYPE":0,"CLASSIFICATION_TYPE":"U","NORAD_CAT_ID":55823,"ELEMENT_SET_NO":999,"REV_AT_EPOCH":14333,"BSTAR":4.9248593e-5,"MEAN_MOTION_DOT":3.3e-7,"MEAN_MOTION_DDOT":0},{"OBJECT_NAME":"ONEWEB-0664","OBJECT_ID":"2023-029AE","EPOCH":"2026-02-02T06:26:47.478912","MEAN_MOTION":13.20770439,"ECCENTRICITY":0.00017622,"INCLINATION":87.9213,"RA_OF_ASC_NODE":301.4205,"ARG_OF_PERICENTER":66.3427,"MEAN_ANOMALY":293.7891,"EPHEMERIS_TYPE":0,"CLASSIFICATION_TYPE":"U","NORAD_CAT_ID":55824,"ELEMENT_SET_NO":999,"REV_AT_EPOCH":14333,"BSTAR":-0.00010647648,"MEAN_MOTION_DOT":-3.0e-7,"MEAN_MOTION_DDOT":0},{"OBJECT_NAME":"ONEWEB-0665","OBJECT_ID":"2023-029AF","EPOCH":"2026-02-02T06:39:48.602304","MEAN_MOTION":13.14501545,"ECCENTRICITY":0.00014179,"INCLINATION":87.9023,"RA_OF_ASC_NODE":316.6286,"ARG_OF_PERICENTER":72.9645,"MEAN_ANOMALY":287.164,"EPHEMERIS_TYPE":0,"CLASSIFICATION_TYPE":"U","NORAD_CAT_ID":55825,"ELEMENT_SET_NO":999,"REV_AT_EPOCH":14168,"BSTAR":-0.00036765895,"MEAN_MOTION_DOT":-1.24e-6,"MEAN_MOTION_DDOT":0},{"OBJECT_NAME":"ONEWEB-0666","OBJECT_ID":"2023-029AG","EPOCH":"2026-02-02T06:17:42.067680","MEAN_MOTION":13.20773844,"ECCENTRICITY":0.00023363,"INCLINATION":87.9215,"RA_OF_ASC_NODE":301.4116,"ARG_OF_PERICENTER":88.7073,"MEAN_ANOMALY":271.4328,"EPHEMERIS_TYPE":0,"CLASSIFICATION_TYPE":"U","NORAD_CAT_ID":55826,"ELEMENT_SET_NO":999,"REV_AT_EPOCH":14334,"BSTAR":-0.00020147419,"MEAN_MOTION_DOT":-6.9e-7,"MEAN_MOTION_DDOT":0},{"OBJECT_NAME":"ONEWEB-0667","OBJECT_ID":"2023-029AH","EPOCH":"2026-02-02T06:08:37.053024","MEAN_MOTION":13.20773748,"ECCENTRICITY":0.00015353,"INCLINATION":87.9225,"RA_OF_ASC_NODE":301.3505,"ARG_OF_PERICENTER":72.6928,"MEAN_ANOMALY":287.4373,"EPHEMERIS_TYPE":0,"CLASSIFICATION_TYPE":"U","NORAD_CAT_ID":55827,"ELEMENT_SET_NO":999,"REV_AT_EPOCH":14333,"BSTAR":4.8440151e-5,"MEAN_MOTION_DOT":3.3e-7,"MEAN_MOTION_DDOT":0},{"OBJECT_NAME":"ONEWEB-0669","OBJECT_ID":"2023-029AJ","EPOCH":"2026-02-02T06:01:48.491616","MEAN_MOTION":13.20773101,"ECCENTRICITY":0.00021958,"INCLINATION":87.9215,"RA_OF_ASC_NODE":301.38,"ARG_OF_PERICENTER":67.9423,"MEAN_ANOMALY":292.1943,"EPHEMERIS_TYPE":0,"CLASSIFICATION_TYPE":"U","NORAD_CAT_ID":55828,"ELEMENT_SET_NO":999,"REV_AT_EPOCH":14333,"BSTAR":0.00019805746,"MEAN_MOTION_DOT":9.4e-7,"MEAN_MOTION_DDOT":0},{"OBJECT_NAME":"ONEWEB-0670","OBJECT_ID":"2023-029AK","EPOCH":"2026-02-02T06:07:52.677120","MEAN_MOTION":13.14508152,"ECCENTRICITY":0.00016787,"INCLINATION":87.9026,"RA_OF_ASC_NODE":316.6524,"ARG_OF_PERICENTER":64.2633,"MEAN_ANOMALY":295.867,"EPHEMERIS_TYPE":0,"CLASSIFICATION_TYPE":"U","NORAD_CAT_ID":55829,"ELEMENT_SET_NO":999,"REV_AT_EPOCH":14170,"BSTAR":1.2135139e-5,"MEAN_MOTION_DOT":1.7e-7,"MEAN_MOTION_DDOT":0},{"OBJECT_NAME":"ONEWEB-0671","OBJECT_ID":"2023-029AL","EPOCH":"2026-02-02T06:16:11.454816","MEAN_MOTION":13.19726672,"ECCENTRICITY":0.00016489,"INCLINATION":87.9245,"RA_OF_ASC_NODE":331.835,"ARG_OF_PERICENTER":75.2922,"MEAN_ANOMALY":284.8394,"EPHEMERIS_TYPE":0,"CLASSIFICATION_TYPE":"U","NORAD_CAT_ID":55830,"ELEMENT_SET_NO":999,"REV_AT_EPOCH":14110,"BSTAR":0.00024916695,"MEAN_MOTION_DOT":1.13e-6,"MEAN_MOTION_DDOT":0},{"OBJECT_NAME":"ONEWEB-0672","OBJECT_ID":"2023-029AM","EPOCH":"2026-02-02T05:54:58.352544","MEAN_MOTION":13.20774275,"ECCENTRICITY":0.00019236,"INCLINATION":87.9222,"RA_OF_ASC_NODE":301.3642,"ARG_OF_PERICENTER":78.7538,"MEAN_ANOMALY":281.3811,"EPHEMERIS_TYPE":0,"CLASSIFICATION_TYPE":"U","NORAD_CAT_ID":55831,"ELEMENT_SET_NO":999,"REV_AT_EPOCH":14333,"BSTAR":0.00024080956,"MEAN_MOTION_DOT":1.11e-6,"MEAN_MOTION_DDOT":0},{"OBJECT_NAME":"ONEWEB-0673","OBJECT_ID":"2023-029AN","EPOCH":"2026-02-02T05:43:11.926272","MEAN_MOTION":13.19727165,"ECCENTRICITY":0.00017196,"INCLINATION":87.9249,"RA_OF_ASC_NODE":331.8242,"ARG_OF_PERICENTER":75.226,"MEAN_ANOMALY":284.9063,"EPHEMERIS_TYPE":0,"CLASSIFICATION_TYPE":"U","NORAD_CAT_ID":55832,"ELEMENT_SET_NO":999,"REV_AT_EPOCH":14110,"BSTAR":0.00017657201,"MEAN_MOTION_DOT":8.4e-7,"MEAN_MOTION_DDOT":0},{"OBJECT_NAME":"ONEWEB-0674","OBJECT_ID":"2023-029AP","EPOCH":"2026-02-02T05:22:11.942112","MEAN_MOTION":13.14503508,"ECCENTRICITY":0.00017288,"INCLINATION":87.9021,"RA_OF_ASC_NODE":316.6362,"ARG_OF_PERICENTER":62.7917,"MEAN_ANOMALY":297.3389,"EPHEMERIS_TYPE":0,"CLASSIFICATION_TYPE":"U","NORAD_CAT_ID":55833,"ELEMENT_SET_NO":999,"REV_AT_EPOCH":14168,"BSTAR":0.00073085583,"MEAN_MOTION_DOT":2.84e-6,"MEAN_MOTION_DDOT":0},{"OBJECT_NAME":"ONEWEB-0675","OBJECT_ID":"2023-029AQ","EPOCH":"2026-02-02T06:04:48.430848","MEAN_MOTION":13.19728131,"ECCENTRICITY":0.00018922,"INCLINATION":87.9238,"RA_OF_ASC_NODE":331.8408,"ARG_OF_PERICENTER":87.2263,"MEAN_ANOMALY":272.9086,"EPHEMERIS_TYPE":0,"CLASSIFICATION_TYPE":"U","NORAD_CAT_ID":55834,"ELEMENT_SET_NO":999,"REV_AT_EPOCH":14112,"BSTAR":0.00027801405,"MEAN_MOTION_DOT":1.24e-6,"MEAN_MOTION_DDOT":0}]
