ONEWEB-0658             
1 55819U 23029Z   26033.26598062  .00000088  00000+0  18672-3 0  9998
2 55819  87.9254 331.7968 0001412  89.7697 270.3598 13.19726988141123
ONEWEB-0660             
1 55820U 23029AA  26033.24593879  .00000188  00000+0  47292-3 0  9990
2 55820  87.9036 316.5953 0001465  70.8764 289.2525 13.14504625141678
ONEWEB-0661             
1 55821U 23029AB  26033.28082982 -.00000077  00000+0 -24118-3 0  9994
2 55821  87.9021 316.6487 0001594  67.7161 292.4137 13.14504468141664
ONEWEB-0662             
1 55822U 23029AC  26033.23959205  .00000194  00000+0  49011-3 0  9998
2 55822  87.9023 316.6641 0001459  71.4057 288.7231 13.14501935141709
ONEWEB-0663             
1 55823U 23029AD  26033.24898966  .00000033  00000+0  49249-4 0  9992
2 55823  87.9237 301.4271 0001235  75.8515 284.2756 13.20858818143333
ONEWEB-0664             
1 55824U 23029AE  26033.26860508 -.00000030  00000+0 -10648-3 0  9995
2 55824  87.9213 301.4205 0001762  66.3427 293.7891 13.20770439143334
ONEWEB-0665             
1 55825U 23029AF  26033.27764586 -.00000124  00000+0 -36766-3 0  9999
2 55825  87.9023 316.6286 0001417  72.9645 287.1640 13.14501545141681
ONEWEB-0666             
1 55826U 23029AG  26033.26229245 -.00000069  00000+0 -20147-3 0  9991
2 55826  87.9215 301.4116 0002336  88.7073 271.4328 13.20773844143344
ONEWEB-0667             
1 55827U 23029AH  26033.25598441  .00000033  00000+0  48440-4 0  9994
2 55827  87.9225 301.3505 0001535  72.6928 287.4373 13.20773748143337
ONEWEB-0669             
1 55828U 23029AJ  26033.25125569  .00000094  00000+0  19806-3 0  9992
2 55828  87.9215 301.3800 0002195  67.9423 292.1943 13.20773101143334
ONEWEB-0670             
1 55829U 23029AK  26033.25547080  .00000017  00000+0  12135-4 0  9993
2 55829  87.9026 316.6524 0001678  64.2633 295.8670 13.14508152141706
ONEWEB-0671             
1 55830U 23029AL  26033.26124369  .00000113  00000+0  24917-3 0  9994
2 55830  87.9245 331.8350 0001648  75.2922 284.8394 13.19726672141106
ONEWEB-0672             
1 55831U 23029AM  26033.24650871  .00000111  00000+0  24081-3 0  9995
2 55831  87.9222 301.3642 0001923  78.7538 281.3811 13.20774275143332
ONEWEB-0673             
1 55832U 23029AN  26033.23833248  .00000084  00000+0  17657-3 0  9996
2 55832  87.9249 331.8242 0001719  75.2260 284.9063 13.19727165141108
ONEWEB-0674             
1 55833U 23029AP  26033.22374933  .00000284  00000+0  73086-3 0  9997
2 55833  87.9021 316.6362 0001728  62.7917 297.3389 13.14503508141681
ONEWEB-0675             
1 55834U 23029AQ  26033.25333832  .00000124  00000+0  27801-3 0  9991
2 55834  87.9238 331.8408 0001892  87.2263 272.9086 13.19728131141128
